STARLINK-32603          
1 62072U 24217R   26068.58581748  .00055056  00000+0  18575-2 0  9999
2 62072  53.1591 194.5036 0001028 114.8827 245.2281 15.30195162 73459
JINJUSAT-1B             
1 63210U 25052A   26068.66363707  .00019955  00000+0  68430-3 0  9998
2 63210  97.4113 325.4613 0005550  82.1930 277.9941 15.30194857 54866
